{
  "norad_id": 65596,
  "name": "STARLINK-35253",
  "history": [
    {
      "epoch": "2026-03-28T19:06:34.475040Z",
      "apogee_km": 550.049751061877,
      "perigee_km": 548.9708392721286,
      "latitude_deg": -4.5106289406200385e-05,
      "longitude_deg": 44.59882168755304,
      "height_km": 552.7242831529899,
      "semi_major_axis_km": 6927.647295167003,
      "eccentricity": 7.787e-05,
      "inclination_deg": 97.6048,
      "raan_deg": 157.454,
      "arg_perigee_deg": 106.144,
      "mean_anomaly_deg": 253.9872,
      "mean_motion_rev_day": 15.0565028
    },
    {
      "epoch": "2026-03-29T04:40:46.285824Z",
      "apogee_km": 550.0019953135234,
      "perigee_km": 548.9517690489838,
      "latitude_deg": -2.3638014506499416e-06,
      "longitude_deg": -98.9503193441139,
      "height_km": 552.7262774078515,
      "semi_major_axis_km": 6927.613882181253,
      "eccentricity": 7.58e-05,
      "inclination_deg": 97.605,
      "raan_deg": 157.8471,
      "arg_perigee_deg": 110.6671,
      "mean_anomaly_deg": 249.4637,
      "mean_motion_rev_day": 15.05661173
    },
    {
      "epoch": "2026-03-30T04:36:16.285824Z",
      "apogee_km": 550.1404164268461,
      "perigee_km": 548.8310957259464,
      "latitude_deg": -3.517030908674832e-05,
      "longitude_deg": -97.82497919323171,
      "height_km": 552.7188107055023,
      "semi_major_axis_km": 6927.6227560763955,
      "eccentricity": 9.45e-05,
      "inclination_deg": 97.6049,
      "raan_deg": 158.83,
      "arg_perigee_deg": 104.9889,
      "mean_anomaly_deg": 255.1442,
      "mean_motion_rev_day": 15.0565828
    },
    {
      "epoch": "2026-03-30T04:36:16.286688Z",
      "apogee_km": 550.140485703073,
      "perigee_km": 548.8310264497186,
      "latitude_deg": 6.348133571653085e-05,
      "longitude_deg": -97.82499590248597,
      "height_km": 552.7188156804942,
      "semi_major_axis_km": 6927.6227560763955,
      "eccentricity": 9.451e-05,
      "inclination_deg": 97.6049,
      "raan_deg": 158.83,
      "arg_perigee_deg": 104.989,
      "mean_anomaly_deg": 255.1442,
      "mean_motion_rev_day": 15.0565828
    },
    {
      "epoch": "2026-03-30T10:59:04.244064Z",
      "apogee_km": 550.1322526779422,
      "perigee_km": 548.8275053149528,
      "latitude_deg": -2.471875358666874e-05,
      "longitude_deg": 166.47477691257183,
      "height_km": 552.6482615685628,
      "semi_major_axis_km": 6927.616878996448,
      "eccentricity": 9.417e-05,
      "inclination_deg": 97.604,
      "raan_deg": 159.0916,
      "arg_perigee_deg": 99.2316,
      "mean_anomaly_deg": 260.9017,
      "mean_motion_rev_day": 15.05660196
    },
    {
      "epoch": "2026-03-30T17:21:52.297344Z",
      "apogee_km": 549.8064390826012,
      "perigee_km": 549.1864158908402,
      "latitude_deg": -2.8589158374910622e-05,
      "longitude_deg": 70.77593783669052,
      "height_km": 552.7584996310326,
      "semi_major_axis_km": 6927.63342748672,
      "eccentricity": 4.475e-05,
      "inclination_deg": 97.6049,
      "raan_deg": 159.355,
      "arg_perigee_deg": 129.5601,
      "mean_anomaly_deg": 230.5665,
      "mean_motion_rev_day": 15.05654801
    },
    {
      "epoch": "2026-03-31T10:54:34.656192Z",
      "apogee_km": 550.5320327437194,
      "perigee_km": 548.4968273066079,
      "latitude_deg": 1.2149314693929361e-05,
      "longitude_deg": 167.60178654454398,
      "height_km": 553.1771712556944,
      "semi_major_axis_km": 6927.651430025164,
      "eccentricity": 0.00014689,
      "inclination_deg": 97.606,
      "raan_deg": 160.0779,
      "arg_perigee_deg": 126.0888,
      "mean_anomaly_deg": 234.0475,
      "mean_motion_rev_day": 15.05648932
    },
    {
      "epoch": "2026-04-01T04:27:16.921728Z",
      "apogee_km": 550.1861181341237,
      "perigee_km": 548.8368893115385,
      "latitude_deg": -4.766181853199311e-05,
      "longitude_deg": -95.57676149491206,
      "height_km": 552.6973277696409,
      "semi_major_axis_km": 6927.648503722831,
      "eccentricity": 9.738e-05,
      "inclination_deg": 97.6042,
      "raan_deg": 160.796,
      "arg_perigee_deg": 100.4325,
      "mean_anomaly_deg": 259.7011,
      "mean_motion_rev_day": 15.05649886
    },
    {
      "epoch": "2026-04-02T04:22:46.602048Z",
      "apogee_km": 550.1896385489126,
      "perigee_km": 548.7480037775276,
      "latitude_deg": 9.034615942065091e-05,
      "longitude_deg": -94.45020787549247,
      "height_km": 552.659936945716,
      "semi_major_axis_km": 6927.60582116322,
      "eccentricity": 0.00010405,
      "inclination_deg": 97.6038,
      "raan_deg": 161.7788,
      "arg_perigee_deg": 100.1918,
      "mean_anomaly_deg": 259.9427,
      "mean_motion_rev_day": 15.05663801
    },
    {
      "epoch": "2026-04-03T18:39:34.731648Z",
      "apogee_km": 550.3342271130923,
      "perigee_km": 548.7754964441929,
      "latitude_deg": -6.01736624551947e-05,
      "longitude_deg": 51.349567404438474,
      "height_km": 552.6274502667445,
      "semi_major_axis_km": 6927.691861778642,
      "eccentricity": 0.0001125,
      "inclination_deg": 97.6038,
      "raan_deg": 163.3512,
      "arg_perigee_deg": 90.6781,
      "mean_anomaly_deg": 269.4574,
      "mean_motion_rev_day": 15.05635751
    },
    {
      "epoch": "2026-04-04T18:35:05.402112Z",
      "apogee_km": 550.1398118267998,
      "perigee_km": 548.8859072022269,
      "latitude_deg": -1.0628088484293139e-05,
      "longitude_deg": 52.472193988817594,
      "height_km": 552.5295565354846,
      "semi_major_axis_km": 6927.649859514513,
      "eccentricity": 9.05e-05,
      "inclination_deg": 97.6022,
      "raan_deg": 164.3342,
      "arg_perigee_deg": 85.6939,
      "mean_anomaly_deg": 274.4391,
      "mean_motion_rev_day": 15.05649444
    },
    {
      "epoch": "2026-04-05T10:32:05.009568Z",
      "apogee_km": 550.0631984679203,
      "perigee_km": 548.8705421856048,
      "latitude_deg": -2.23370662425642e-05,
      "longitude_deg": 173.2234913965596,
      "height_km": 552.5010221725022,
      "semi_major_axis_km": 6927.603870326762,
      "eccentricity": 8.608e-05,
      "inclination_deg": 97.6025,
      "raan_deg": 164.9889,
      "arg_perigee_deg": 87.1447,
      "mean_anomaly_deg": 272.9878,
      "mean_motion_rev_day": 15.05664437
    },
    {
      "epoch": "2026-04-05T18:30:34.945920Z",
      "apogee_km": 550.0027898208536,
      "perigee_km": 548.952563435877,
      "latitude_deg": -5.691755101510847e-05,
      "longitude_deg": 53.598839705647364,
      "height_km": 552.5390285869765,
      "semi_major_axis_km": 6927.614676628365,
      "eccentricity": 7.58e-05,
      "inclination_deg": 97.6024,
      "raan_deg": 165.3165,
      "arg_perigee_deg": 89.708,
      "mean_anomaly_deg": 270.4233,
      "mean_motion_rev_day": 15.05660914
    },
    {
      "epoch": "2026-04-06T04:04:46.639200Z",
      "apogee_km": 549.9375532030226,
      "perigee_km": 548.9978928983883,
      "latitude_deg": 1.9890936035681688e-05,
      "longitude_deg": -89.94961575679683,
      "height_km": 552.5923102072053,
      "semi_major_axis_km": 6927.604723050706,
      "eccentricity": 6.782e-05,
      "inclination_deg": 97.6023,
      "raan_deg": 165.7098,
      "arg_perigee_deg": 97.3879,
      "mean_anomaly_deg": 262.7425,
      "mean_motion_rev_day": 15.05664159
    },
    {
      "epoch": "2026-04-07T18:21:32.131872Z",
      "apogee_km": 549.4341732021039,
      "perigee_km": 549.1071995593065,
      "latitude_deg": 5.250745737613477e-05,
      "longitude_deg": 55.8609476774332,
      "height_km": 552.4538975884565,
      "semi_major_axis_km": 6927.407686380705,
      "eccentricity": 2.36e-05,
      "inclination_deg": 97.6018,
      "raan_deg": 167.282,
      "arg_perigee_deg": 136.2734,
      "mean_anomaly_deg": 223.8512,
      "mean_motion_rev_day": 15.05728398
    },
    {
      "epoch": "2026-04-08T03:55:45.441696Z",
      "apogee_km": 550.0116211579762,
      "perigee_km": 549.0132083243243,
      "latitude_deg": -6.573086290971887e-05,
      "longitude_deg": -87.69623630201735,
      "height_km": 552.8113540153158,
      "semi_major_axis_km": 6927.64941474115,
      "eccentricity": 7.206e-05,
      "inclination_deg": 97.6004,
      "raan_deg": 167.6733,
      "arg_perigee_deg": 118.0338,
      "mean_anomaly_deg": 242.0961,
      "mean_motion_rev_day": 15.05649589
    },
    {
      "epoch": "2026-04-09T18:12:33.411456Z",
      "apogee_km": 549.7692578540937,
      "perigee_km": 549.3300425204716,
      "latitude_deg": 5.683605310825247e-05,
      "longitude_deg": 58.105165248798144,
      "height_km": 552.7099482395204,
      "semi_major_axis_km": 6927.686650187282,
      "eccentricity": 3.17e-05,
      "inclination_deg": 97.6023,
      "raan_deg": 169.2467,
      "arg_perigee_deg": 115.7938,
      "mean_anomaly_deg": 244.3322,
      "mean_motion_rev_day": 15.0563745
    },
    {
      "epoch": "2026-04-10T10:09:34.159392Z",
      "apogee_km": 549.8465121186482,
      "perigee_km": 549.2396473436629,
      "latitude_deg": 2.4868668718354504e-05,
      "longitude_deg": 178.85219962471223,
      "height_km": 552.631229079398,
      "semi_major_axis_km": 6927.680079731155,
      "eccentricity": 4.38e-05,
      "inclination_deg": 97.6006,
      "raan_deg": 169.9019,
      "arg_perigee_deg": 94.4609,
      "mean_anomaly_deg": 265.6668,
      "mean_motion_rev_day": 15.05639592
    },
    {
      "epoch": "2026-04-11T03:42:16.687584Z",
      "apogee_km": 549.7421019518033,
      "perigee_km": 549.3296283094123,
      "latitude_deg": -4.0621654863260965e-05,
      "longitude_deg": -84.32474767090255,
      "height_km": 552.6770426074344,
      "semi_major_axis_km": 6927.6728651306075,
      "eccentricity": 2.977e-05,
      "inclination_deg": 97.6024,
      "raan_deg": 170.6227,
      "arg_perigee_deg": 111.747,
      "mean_anomaly_deg": 248.3788,
      "mean_motion_rev_day": 15.05641944
    }
  ]
}